SOYUZ-MS 28             
1 66664U 25275A   26005.21007013  .00011029  00000+0  20718-3 0  9999
2 66664  51.6325  26.2661 0007559 342.6147  17.4581 15.49105990  1288
1998-067XS              
1 66906U 98067XS  26005.30775022  .00025675  00000+0  42539-3 0  9996
2 66906  51.6317  25.4203 0002451 327.9399  32.1441 15.51983967  5275
1998-067XT              
1 66907U 98067XT  26005.27792068  .00090655  00000+0  13196-2 0  9998
2 66907  51.6310  25.2208 0003889  10.2675 349.8395 15.54969678  5279
1998-067XU              
1 66908U 98067XU  26005.34113961  .00096028  00000+0  13964-2 0  9999
2 66908  51.6307  24.8921 0003806   7.4686 352.6361 15.54970958  5281
SILVERSAT               
1 66909U 98067XV  26005.33647079  .00101608  00000+0  14474-2 0  9999
2 66909  51.6314  24.8616 0003975  15.5004 344.6108 15.55506020  5288
1998-067XW              
1 66910U 98067XW  26005.33604344  .00094853  00000+0  13658-2 0  9995
2 66910  51.6301  24.8576 0003072 348.0526  12.0391 15.55248947  5283
1998-067XX              
1 66911U 98067XX  26005.32706009  .00108886  00000+0  15129-2 0  9993
2 66911  51.6310  24.7983 0003005   3.7870 356.3144 15.56150202  5274
1998-067XY              
1 66912U 98067XY  26005.28879200  .00066813  00000+0  10171-2 0  9998
2 66912  51.6317  25.2934 0003719 357.1899   2.9069 15.53877242  5269
