CCSDS_OMM_VERS = 2.0
CREATION_DATE  = 
ORIGINATOR     = 

OBJECT_NAME    = SOYUZ-MS 28
OBJECT_ID      = 2025-275A
CENTER_NAME    = EARTH
REF_FRAME      = TEME
TIME_SYSTEM    = UTC
MEAN_ELEMENT_THEORY = SGP/SGP4

EPOCH          = 2026-01-05T05:02:30.059232
MEAN_MOTION    = 15.49105990
ECCENTRICITY   = .00075599
INCLINATION    = 51.6325
RA_OF_ASC_NODE = 26.2661
ARG_OF_PERICENTER = 342.6147
MEAN_ANOMALY   = 17.4581

EPHEMERIS_TYPE = 0
CLASSIFICATION_TYPE = U
NORAD_CAT_ID   = 66664
ELEMENT_SET_NO = 999
REV_AT_EPOCH   = 128
BSTAR          = .20717669E-3
MEAN_MOTION_DOT = .11029E-3
MEAN_MOTION_DDOT = 0

CCSDS_OMM_VERS = 2.0
CREATION_DATE  = 
ORIGINATOR     = 

OBJECT_NAME    = 1998-067XS
OBJECT_ID      = 1998-067XS
CENTER_NAME    = EARTH
REF_FRAME      = TEME
TIME_SYSTEM    = UTC
MEAN_ELEMENT_THEORY = SGP/SGP4

EPOCH          = 2026-01-05T07:23:09.619008
MEAN_MOTION    = 15.51983967
ECCENTRICITY   = .00024515
INCLINATION    = 51.6317
RA_OF_ASC_NODE = 25.4203
ARG_OF_PERICENTER = 327.9399
MEAN_ANOMALY   = 32.1441

EPHEMERIS_TYPE = 0
CLASSIFICATION_TYPE = U
NORAD_CAT_ID   = 66906
ELEMENT_SET_NO = 999
REV_AT_EPOCH   = 527
BSTAR          = .4253925E-3
MEAN_MOTION_DOT = .25675E-3
MEAN_MOTION_DDOT = 0

CCSDS_OMM_VERS = 2.0
CREATION_DATE  = 
ORIGINATOR     = 

OBJECT_NAME    = 1998-067XT
OBJECT_ID      = 1998-067XT
CENTER_NAME    = EARTH
REF_FRAME      = TEME
TIME_SYSTEM    = UTC
MEAN_ELEMENT_THEORY = SGP/SGP4

EPOCH          = 2026-01-05T06:40:12.346752
MEAN_MOTION    = 15.54969678
ECCENTRICITY   = .00038892
INCLINATION    = 51.6310
RA_OF_ASC_NODE = 25.2208
ARG_OF_PERICENTER = 10.2675
MEAN_ANOMALY   = 349.8395

EPHEMERIS_TYPE = 0
CLASSIFICATION_TYPE = U
NORAD_CAT_ID   = 66907
ELEMENT_SET_NO = 999
REV_AT_EPOCH   = 527
BSTAR          = .13196461E-2
MEAN_MOTION_DOT = .90655E-3
MEAN_MOTION_DDOT = 0

CCSDS_OMM_VERS = 2.0
CREATION_DATE  = 
ORIGINATOR     = 

OBJECT_NAME    = 1998-067XU
OBJECT_ID      = 1998-067XU
CENTER_NAME    = EARTH
REF_FRAME      = TEME
TIME_SYSTEM    = UTC
MEAN_ELEMENT_THEORY = SGP/SGP4

EPOCH          = 2026-01-05T08:11:14.462304
MEAN_MOTION    = 15.54970958
ECCENTRICITY   = .00038066
INCLINATION    = 51.6307
RA_OF_ASC_NODE = 24.8921
ARG_OF_PERICENTER = 7.4686
MEAN_ANOMALY   = 352.6361

EPHEMERIS_TYPE = 0
CLASSIFICATION_TYPE = U
NORAD_CAT_ID   = 66908
ELEMENT_SET_NO = 999
REV_AT_EPOCH   = 528
BSTAR          = .13964482E-2
MEAN_MOTION_DOT = .96028E-3
MEAN_MOTION_DDOT = 0

CCSDS_OMM_VERS = 2.0
CREATION_DATE  = 
ORIGINATOR     = 

OBJECT_NAME    = SILVERSAT
OBJECT_ID      = 1998-067XV
CENTER_NAME    = EARTH
REF_FRAME      = TEME
TIME_SYSTEM    = UTC
MEAN_ELEMENT_THEORY = SGP/SGP4

EPOCH          = 2026-01-05T08:04:31.076256
MEAN_MOTION    = 15.55506020
ECCENTRICITY   = .00039756
INCLINATION    = 51.6314
RA_OF_ASC_NODE = 24.8616
ARG_OF_PERICENTER = 15.5004
MEAN_ANOMALY   = 344.6108

EPHEMERIS_TYPE = 0
CLASSIFICATION_TYPE = U
NORAD_CAT_ID   = 66909
ELEMENT_SET_NO = 999
REV_AT_EPOCH   = 528
BSTAR          = .14473911E-2
MEAN_MOTION_DOT = .101608E-2
MEAN_MOTION_DDOT = 0

CCSDS_OMM_VERS = 2.0
CREATION_DATE  = 
ORIGINATOR     = 

OBJECT_NAME    = 1998-067XW
OBJECT_ID      = 1998-067XW
CENTER_NAME    = EARTH
REF_FRAME      = TEME
TIME_SYSTEM    = UTC
MEAN_ELEMENT_THEORY = SGP/SGP4

EPOCH          = 2026-01-05T08:03:54.153216
MEAN_MOTION    = 15.55248947
ECCENTRICITY   = .00030721
INCLINATION    = 51.6301
RA_OF_ASC_NODE = 24.8576
ARG_OF_PERICENTER = 348.0526
MEAN_ANOMALY   = 12.0391

EPHEMERIS_TYPE = 0
CLASSIFICATION_TYPE = U
NORAD_CAT_ID   = 66910
ELEMENT_SET_NO = 999
REV_AT_EPOCH   = 528
BSTAR          = .13657659E-2
MEAN_MOTION_DOT = .94853E-3
MEAN_MOTION_DDOT = 0

CCSDS_OMM_VERS = 2.0
CREATION_DATE  = 
ORIGINATOR     = 

OBJECT_NAME    = 1998-067XX
OBJECT_ID      = 1998-067XX
CENTER_NAME    = EARTH
REF_FRAME      = TEME
TIME_SYSTEM    = UTC
MEAN_ELEMENT_THEORY = SGP/SGP4

EPOCH          = 2026-01-05T07:50:57.991776
MEAN_MOTION    = 15.56150202
ECCENTRICITY   = .00030056
INCLINATION    = 51.6310
RA_OF_ASC_NODE = 24.7983
ARG_OF_PERICENTER = 3.7870
MEAN_ANOMALY   = 356.3144

EPHEMERIS_TYPE = 0
CLASSIFICATION_TYPE = U
NORAD_CAT_ID   = 66911
ELEMENT_SET_NO = 999
REV_AT_EPOCH   = 527
BSTAR          = .15129285E-2
MEAN_MOTION_DOT = .108886E-2
MEAN_MOTION_DDOT = 0

CCSDS_OMM_VERS = 2.0
CREATION_DATE  = 
ORIGINATOR     = 

OBJECT_NAME    = 1998-067XY
OBJECT_ID      = 1998-067XY
CENTER_NAME    = EARTH
REF_FRAME      = TEME
TIME_SYSTEM    = UTC
MEAN_ELEMENT_THEORY = SGP/SGP4

EPOCH          = 2026-01-05T06:55:51.628800
MEAN_MOTION    = 15.53877242
ECCENTRICITY   = .00037197
INCLINATION    = 51.6317
RA_OF_ASC_NODE = 25.2934
ARG_OF_PERICENTER = 357.1899
MEAN_ANOMALY   = 2.9069

EPHEMERIS_TYPE = 0
CLASSIFICATION_TYPE = U
NORAD_CAT_ID   = 66912
ELEMENT_SET_NO = 999
REV_AT_EPOCH   = 526
BSTAR          = .10171068E-2
MEAN_MOTION_DOT = .66813E-3
MEAN_MOTION_DDOT = 0

